SIRION PATHFINDER-2     
1 43759U 18099B   26162.69801252  .00004246  00000+0  23404-3 0  9996
2 43759  97.4258 211.8858 0007600 327.5787  32.4978 15.14499537411793
CORVUS BC4              
1 43767U 18099K   26162.63098222  .00003531  00000+0  20656-3 0  9996
2 43767  97.4072 205.7738 0008894  31.6274 328.5490 15.12451004411563
M2 PATHFINDER           
1 45727U 20037E   26162.46073949  .00001931  00000+0  14173-3 0  9998
2 45727  97.8158 353.6285 0011967 164.5822 195.5770 15.04652768324635
NETSAT-4                
1 46504U 20068U   26162.55045683  .00016418  00000+0  36585-3 0  9997
2 46504  97.8603 170.3387 0004567   2.6177 357.5092 15.43678217314900
NETSAT-3                
1 46505U 20068V   26162.55238750  .00017585  00000+0  40759-3 0  9991
2 46505  97.8652 168.5644 0005016  21.9125 338.2335 15.42483769314818
NETSAT-1                
1 46506U 20068W   26162.52770532  .00011763  00000+0  35417-3 0  9995
2 46506  97.8744 162.9354 0005692  48.6631 311.5100 15.34510423314436
NETSAT-2                
1 46507U 20068X   26162.27452250  .00017621  00000+0  36601-3 0  9997
2 46507  97.8620 169.9134 0004198  43.2285 316.9291 15.45743313314820
GREENCUBE (IO-117)      
1 53109U 22080E   26152.46502029 -.00000003  00000+0  00000+0 0  9996
2 53109  70.1435 303.7143 0008869 293.3663  66.6064  6.42583280 91055
SITRO-AIS 5 (KATYS)     
1 57176U 23091L   26162.63951677  .00011367  00000+0  40118-3 0  9996
2 57176  97.5068 226.4862 0012774 120.5417 239.7085 15.29328443163492
SITRO-AIS 6 (CHIRKIN)   
1 57192U 23091AC  26162.67128400  .00009357  00000+0  36771-3 0  9994
2 57192  97.5076 225.6666 0013063 123.4610 236.7879 15.25828927163442
SITRO-AIS 8 (ANOKHIN)   
1 57193U 23091AD  26162.66619957  .00013870  00000+0  45044-3 0  9994
2 57193  97.5065 228.0797 0011846 116.8868 243.3586 15.31983771163604
SITRO-AIS 7 (FARTUSHNIY)
1 57194U 23091AE  26162.67330919  .00009231  00000+0  36617-3 0  9996
2 57194  97.5074 225.4964 0012898 124.4280 235.8179 15.25518798163434
SITRO-AIS 10 (BURDAEV)  
1 57199U 23091AK  26162.65583080  .00018616  00000+0  49277-3 0  9991
2 57199  97.5088 233.0662 0007802  96.5567 263.6566 15.38399418163912
SITRO-AIS 9 (SHCHUKIN)  
1 57201U 23091AM  26162.68048176  .00018442  00000+0  49582-3 0  9996
2 57201  97.5086 232.8259 0008060  96.6428 263.5734 15.37918677163905
SITRO-AIS 12 (SMIRENNIY)
1 57204U 23091AQ  26162.67214398  .00017924  00000+0  47758-3 0  9996
2 57204  97.5100 233.2809 0007627  91.7374 268.4744 15.38206637163929
SITRO-AIS 11 (SHEFFER)  
1 57208U 23091AU  26162.68707676  .00018927  00000+0  49725-3 0  9997
2 57208  97.5098 233.5394 0007530  91.6041 268.6066 15.38630283163943
SITRO-AIS 25            
1 59066U 24039R   26162.68123935  .00002832  00000+0  22211-3 0  9993
2 59066  95.3915 231.3087 0144147 348.1868  11.5987 14.93486350123902
SITRO-AIS 26            
1 59067U 24039S   26162.68186154  .00002750  00000+0  21675-3 0  9998
2 59067  95.3916 231.2079 0144484 348.7577  11.0429 14.93283073123892
SITRO-AIS 27            
1 59068U 24039T   26162.72064079  .00003014  00000+0  23527-3 0  9997
2 59068  95.3915 231.5038 0143499 347.1896  12.5697 14.93699841123923
SITRO-AIS 28            
1 59071U 24039U   26162.69820267  .00002384  00000+0  18652-3 0  9998
2 59071  95.3918 231.5353 0143442 347.1390  12.6191 14.93734401123929
GRBBETA                 
1 60237U 24128C   26162.57868025  .00003203  00000+0  22564-3 0  9992
2 60237  61.9897 235.9431 0041389 133.4300 227.0250 15.06603237105429
OOV-CUBE (TUBSAT-30)    
1 60240U 24128F   26162.59923854  .00001977  00000+0  15980-3 0  9990
2 60240  61.9950 245.0577 0045327 132.4986 227.9949 15.02751187105272
ROBUSTA-3A (MEDITERRAN*)
1 60243U 24128J   26162.51224362  .00006273  00000+0  37269-3 0  9991
2 60243  61.9859 228.3117 0041955 127.1025 233.3917 15.11611105105568
LASARSAT                
1 62391U 24247Q   26160.80476977  .00035312  00000+0  71316-3 0  9997
2 62391  44.9750 303.6854 0008391 290.3514  69.6474 15.45910909 82173
CROCUBE                 
1 62394U 24247T   26162.55402786  .00037162  00000+0  70104-3 0  9990
2 62394  44.9723 291.2854 0008283 303.5524  56.4575 15.47864361 82477
FORESAIL-1 PRIME        
1 66778U 25276DS  26162.65957241  .00004267  00000+0  20920-3 0  9996
2 66778  97.4203 236.0315 0003841 114.6307 245.5328 15.18651804 29569
KNACKSAT-2              
1 67683U 98067XZ  26162.64826142  .00046499  00000+0  57743-3 0  9990
2 67683  51.6308 322.3291 0009864 190.9117 169.1664 15.59472587 19413
